{"type": "FeatureCollection", "features": [ {"type": "Feature", "properties": {"norad_id": 57401, "name": "TIANMU-1 09", "group": "weather", "lat": -49.25540261570118, "lon": 42.449967653789415, "alt_km": 492.14962121201734, "timestamp": "2025-12-10T16:57:11.277988+00:00", "meta": {"OBJECT_NAME": "TIANMU-1 09", "OBJECT_ID": "2023-101C", "EPOCH": "2025-12-10T12:27:21.019392", "MEAN_MOTION": 15.28029577, "ECCENTRICITY": 0.0006816, "INCLINATION": 97.2822, "RA_OF_ASC_NODE": 33.7305, "ARG_OF_PERICENTER": 89.8615, "MEAN_ANOMALY": 270.3405, "EPHEMERIS_TYPE": 0, "CLASSIFICATION_TYPE": "U", "NORAD_CAT_ID": 57401, "ELEMENT_SET_NO": 999, "REV_AT_EPOCH": 13281, "BSTAR": 0.00040165, "MEAN_MOTION_DOT": 0.00010921, "MEAN_MOTION_DDOT": 0}, "tle": {"line1": "1 57401U 23101C   25344.51899328  .00010921  00000+0  40165-3 0  9998", "line2": "2 57401  97.2822  33.7305 0006816  89.8615 270.3405 15.28029577132810"}}, "geometry": {"type": "Point", "coordinates": [42.449967653789415, -49.25540261570118]}}, {"type": "Feature", "properties": {"norad_id": 57402, "name": "TIANMU-1 10", "group": "weather", "lat": 56.83667531695246, "lon": -133.94093648658156, "alt_km": 471.4005643929122, "timestamp": "2025-12-10T16:57:11.277999+00:00", "meta": {"OBJECT_NAME": "TIANMU-1 10", "OBJECT_ID": "2023-101D", "EPOCH": "2025-12-10T10:08:00.118176", "MEAN_MOTION": 15.28018601, "ECCENTRICITY": 0.0008561, "INCLINATION": 97.2903, "RA_OF_ASC_NODE": 34.4832, "ARG_OF_PERICENTER": 90.0989, "MEAN_ANOMALY": 270.1231, "EPHEMERIS_TYPE": 0, "CLASSIFICATION_TYPE": "U", "NORAD_CAT_ID": 57402, "ELEMENT_SET_NO": 999, "REV_AT_EPOCH": 13279, "BSTAR": 0.00042912, "MEAN_MOTION_DOT": 0.00011674, "MEAN_MOTION_DDOT": 0}, "tle": {"line1": "1 57402U 23101D   25344.42222359  .00011674  00000+0  42912-3 0  9991", "line2": "2 57402  97.2903  34.4832 0008561  90.0989 270.1231 15.28018601132799"}}, "geometry": {"type": "Point", "coordinates": [-133.94093648658156, 56.83667531695246]}}, {"type": "Feature", "properties": {"norad_id": 57490, "name": "FENGYUN 3F", "group": "weather", "lat": 80.96996104977912, "lon": -52.287721703664545, "alt_km": 817.7957486068826, "timestamp": "2025-12-10T16:57:11.278471+00:00", "meta": {"OBJECT_NAME": "FENGYUN 3F", "OBJECT_ID": "2023-111A", "EPOCH": "2025-12-10T11:26:45.971808", "MEAN_MOTION": 14.19892711, "ECCENTRICITY": 6.52e-05, "INCLINATION": 98.7087, "RA_OF_ASC_NODE": 52.8068, "ARG_OF_PERICENTER": 97.4586, "MEAN_ANOMALY": 262.6664, "EPHEMERIS_TYPE": 0, "CLASSIFICATION_TYPE": "U", "NORAD_CAT_ID": 57490, "ELEMENT_SET_NO": 999, "REV_AT_EPOCH": 12208, "BSTAR": 9.1284e-05, "MEAN_MOTION_DOT": 1.5e-06, "MEAN_MOTION_DDOT": 0}, "tle": {"line1": "1 57490U 23111A   25344.47692097  .00000150  00000+0  91284-4 0  9998", "line2": "2 57490  98.7087  52.8068 0000652  97.4586 262.6664 14.19892711122085"}}, "geometry": {"type": "Point", "coordinates": [-52.287721703664545, 80.96996104977912]}}, {"type": "Feature", "properties": {"norad_id": 58584, "name": "ARKTIKA-M 2", "group": "weather", "lat": 49.58379892200821, "lon": -41.27062426172904, "alt_km": 26542.6658148409, "timestamp": "2025-12-10T16:57:11.278484+00:00", "meta": {"OBJECT_NAME": "ARKTIKA-M 2", "OBJECT_ID": "2023-198A", "EPOCH": "2025-12-08T20:10:13.977120", "MEAN_MOTION": 2.0060476, "ECCENTRICITY": 0.68646991, "INCLINATION": 63.2247, "RA_OF_ASC_NODE": 175.3152, "ARG_OF_PERICENTER": 268.1185, "MEAN_ANOMALY": 18.8267, "EPHEMERIS_TYPE": 0, "CLASSIFICATION_TYPE": "U", "NORAD_CAT_ID": 58584, "ELEMENT_SET_NO": 999, "REV_AT_EPOCH": 1450, "BSTAR": 0, "MEAN_MOTION_DOT": 1.66e-06, "MEAN_MOTION_DDOT": 0}, "tle": {"line1": "1 58584U 23198A   25342.84043955  .00000166  00000+0  00000+0 0  9998", "line2": "2 58584  63.2247 175.3152 6864699 268.1185  18.8267  2.00604760 14506"}}, "geometry": {"type": "Point", "coordinates": [-41.27062426172904, 49.58379892200821]}}, {"type": "Feature", "properties": {"norad_id": 58645, "name": "TIANMU-1 11", "group": "weather", "lat": -32.971899468714156, "lon": 9.17572270213592, "alt_km": 492.82861417068034, "timestamp": "2025-12-10T16:57:11.278497+00:00", "meta": {"OBJECT_NAME": "TIANMU-1 11", "OBJECT_ID": "2023-205A", "EPOCH": "2025-12-10T12:22:22.438272", "MEAN_MOTION": 15.24555463, "ECCENTRICITY": 0.0008086, "INCLINATION": 97.361, "RA_OF_ASC_NODE": 4.1776, "ARG_OF_PERICENTER": 319.6142, "MEAN_ANOMALY": 40.4494, "EPHEMERIS_TYPE": 0, "CLASSIFICATION_TYPE": "U", "NORAD_CAT_ID": 58645, "ELEMENT_SET_NO": 999, "REV_AT_EPOCH": 10875, "BSTAR": 0.00036755, "MEAN_MOTION_DOT": 8.991e-05, "MEAN_MOTION_DDOT": 0}, "tle": {"line1": "1 58645U 23205A   25344.51553748  .00008991  00000+0  36755-3 0  9991", "line2": "2 58645  97.3610   4.1776 0008086 319.6142  40.4494 15.24555463108755"}}, "geometry": {"type": "Point", "coordinates": [9.17572270213592, -32.971899468714156]}}, {"type": "Feature", "properties": {"norad_id": 58646, "name": "TIANMU-1 12", "group": "weather", "lat": 0.048858686397198856, "lon": -175.8223721780274, "alt_km": 497.67248408681553, "timestamp": "2025-12-10T16:57:11.278507+00:00", "meta": {"OBJECT_NAME": "TIANMU-1 12", "OBJECT_ID": "2023-205B", "EPOCH": "2025-12-10T11:26:24.537696", "MEAN_MOTION": 15.24435837, "ECCENTRICITY": 0.0005996, "INCLINATION": 97.3598, "RA_OF_ASC_NODE": 3.9457, "ARG_OF_PERICENTER": 301.5483, "MEAN_ANOMALY": 58.5168, "EPHEMERIS_TYPE": 0, "CLASSIFICATION_TYPE": "U", "NORAD_CAT_ID": 58646, "ELEMENT_SET_NO": 999, "REV_AT_EPOCH": 10873, "BSTAR": 0.00040912, "MEAN_MOTION_DOT": 9.977e-05, "MEAN_MOTION_DDOT": 0}, "tle": {"line1": "1 58646U 23205B   25344.47667289  .00009977  00000+0  40912-3 0  9998", "line2": "2 58646  97.3598   3.9457 0005996 301.5483  58.5168 15.24435837108737"}}, "geometry": {"type": "Point", "coordinates": [-175.8223721780274, 0.048858686397198856]}}, {"type": "Feature", "properties": {"norad_id": 58647, "name": "TIANMU-1 13", "group": "weather", "lat": -4.449259460289186, "lon": 4.947762990579788, "alt_km": 495.18810002747614, "timestamp": "2025-12-10T16:57:11.278517+00:00", "meta": {"OBJECT_NAME": "TIANMU-1 13", "OBJECT_ID": "2023-205C", "EPOCH": "2025-12-10T12:14:48.502176", "MEAN_MOTION": 15.24479406, "ECCENTRICITY": 0.0006037, "INCLINATION": 97.3626, "RA_OF_ASC_NODE": 4.1786, "ARG_OF_PERICENTER": 277.539, "MEAN_ANOMALY": 82.5162, "EPHEMERIS_TYPE": 0, "CLASSIFICATION_TYPE": "U", "NORAD_CAT_ID": 58647, "ELEMENT_SET_NO": 999, "REV_AT_EPOCH": 10873, "BSTAR": 0.00037547, "MEAN_MOTION_DOT": 9.162e-05, "MEAN_MOTION_DDOT": 0}, "tle": {"line1": "1 58647U 23205C   25344.51028359  .00009162  00000+0  37547-3 0  9999", "line2": "2 58647  97.3626   4.1786 0006037 277.5390  82.5162 15.24479406108735"}}, "geometry": {"type": "Point", "coordinates": [4.947762990579788, -4.449259460289186]}}, {"type": "Feature", "properties": {"norad_id": 58648, "name": "TIANMU-1 14", "group": "weather", "lat": 81.95602103017062, "lon": -62.35562314940869, "alt_km": 489.50735523451294, "timestamp": "2025-12-10T16:57:11.278527+00:00", "meta": {"OBJECT_NAME": "TIANMU-1 14", "OBJECT_ID": "2023-205D", "EPOCH": "2025-12-10T11:50:52.071072", "MEAN_MOTION": 15.24462774, "ECCENTRICITY": 0.0006888, "INCLINATION": 97.3558, "RA_OF_ASC_NODE": 3.5132, "ARG_OF_PERICENTER": 282.7071, "MEAN_ANOMALY": 77.3397, "EPHEMERIS_TYPE": 0, "CLASSIFICATION_TYPE": "U", "NORAD_CAT_ID": 58648, "ELEMENT_SET_NO": 999, "REV_AT_EPOCH": 10873, "BSTAR": 0.00038833, "MEAN_MOTION_DOT": 9.475e-05, "MEAN_MOTION_DDOT": 0}, "tle": {"line1": "1 58648U 23205D   25344.49365823  .00009475  00000+0  38833-3 0  9993", "line2": "2 58648  97.3558   3.5132 0006888 282.7071  77.3397 15.24462774108738"}}, "geometry": {"type": "Point", "coordinates": [-62.35562314940869, 81.95602103017062]}}, {"type": "Feature", "properties": {"norad_id": 58660, "name": "TIANMU-1 19", "group": "weather", "lat": -42.344559326237906, "lon": 102.58606592239666, "alt_km": 487.5137483923281, "timestamp": "2025-12-10T16:57:11.278537+00:00", "meta": {"OBJECT_NAME": "TIANMU-1 19", "OBJECT_ID": "2023-208A", "EPOCH": "2025-12-10T13:59:46.434048", "MEAN_MOTION": 15.27785343, "ECCENTRICITY": 0.000404, "INCLINATION": 97.4387, "RA_OF_ASC_NODE": 95.6245, "ARG_OF_PERICENTER": 262.8858, "MEAN_ANOMALY": 97.1922, "EPHEMERIS_TYPE": 0, "CLASSIFICATION_TYPE": "U", "NORAD_CAT_ID": 58660, "ELEMENT_SET_NO": 999, "REV_AT_EPOCH": 10849, "BSTAR": 0.00052376, "MEAN_MOTION_DOT": 0.00014155, "MEAN_MOTION_DDOT": 0}, "tle": {"line1": "1 58660U 23208A   25344.58317632  .00014155  00000+0  52376-3 0  9994", "line2": "2 58660  97.4387  95.6245 0004040 262.8858  97.1922 15.27785343108490"}}, "geometry": {"type": "Point", "coordinates": [102.58606592239666, -42.344559326237906]}}, {"type": "Feature", "properties": {"norad_id": 58661, "name": "TIANMU-1 20", "group": "weather", "lat": 22.56300240413451, "lon": 93.08368388129996, "alt_km": 479.9630776150816, "timestamp": "2025-12-10T16:57:11.278547+00:00", "meta": {"OBJECT_NAME": "TIANMU-1 20", "OBJECT_ID": "2023-208B", "EPOCH": "2025-12-10T13:42:44.938080", "MEAN_MOTION": 15.28976136, "ECCENTRICITY": 0.000629, "INCLINATION": 97.4325, "RA_OF_ASC_NODE": 96.0582, "ARG_OF_PERICENTER": 275.1821, "MEAN_ANOMALY": 84.87, "EPHEMERIS_TYPE": 0, "CLASSIFICATION_TYPE": "U", "NORAD_CAT_ID": 58661, "ELEMENT_SET_NO": 999, "REV_AT_EPOCH": 10856, "BSTAR": 0.00049246, "MEAN_MOTION_DOT": 0.00013801, "MEAN_MOTION_DDOT": 0}, "tle": {"line1": "1 58661U 23208B   25344.57135345  .00013801  00000+0  49246-3 0  9992", "line2": "2 58661  97.4325  96.0582 0006290 275.1821  84.8700 15.28976136108566"}}, "geometry": {"type": "Point", "coordinates": [93.08368388129996, 22.56300240413451]}}]}